STARLINK-37079          
1 68186U 26050V   26090.92794944  .00404671  00000+0  19471-2 0  9992
2 68186  53.1591 170.2260 0004503  63.1220 297.0262 15.81004413  3995
STARLINK-37006          
1 68187U 26050W   26090.67430682  .00325098  00000+0  15819-2 0  9998
2 68187  53.1593 171.4878 0001383 112.3333 247.7837 15.80976539  3953
STARLINK-36340          
1 68188U 26050X   26091.17931157  .00360087  00000+0  17377-2 0  9996
2 68188  53.1589 168.9478 0001039 101.3619 258.7521 15.81062405  3938
STARLINK-36305          
1 68189U 26050Y   26091.17855678  .00258739  00000+0  12687-2 0  9999
2 68189  53.1587 168.9434 0001172  44.5555 315.5562 15.80990434  3932
STARLINK-37071          
1 68190U 26050Z   26091.17705924  .00460906  00000+0  22040-2 0  9994
2 68190  53.1587 168.9331 0002064 137.2382 222.8802 15.80995445  4035
STARLINK-37091          
1 68191U 26050AA  26091.17630879  .00358353  00000+0  17386-2 0  9990
2 68191  53.1589 168.9278 0001025  88.3294 271.7846 15.80950321  4037
STARLINK-37098          
1 68192U 26050AB  26091.17555949  .00184715  00000+0  91595-3 0  9999
2 68192  53.1587 168.9228 0001130  85.1444 274.9708 15.80957346  4036
STARLINK-37090          
1 68193U 26050AC  26091.23728105  .00318439  00000+0  15559-2 0  9990
2 68193  53.1587 168.5953 0002160 325.7128  34.3755 15.80903545  4047
STARLINK-37093          
1 68194U 26050AD  26091.17781205  .00510736  00000+0  24129-2 0  9991
2 68194  53.1588 168.9374 0000473  77.5132 282.5943 15.81124776  4039
STARLINK-37058          
1 68195U 26050AE  26091.23802525  .00195938  00000+0  96956-3 0  9999
2 68195  53.1587 168.6001 0001134 104.7180 255.3968 15.80969907  2488
YAOGAN-50 02            
1 68196U 26051A   26091.17859461  .00000267  00000+0  72414-4 0  9999
2 68196 141.9865 315.6967 0000728 278.2223  81.8414 13.83260251  2320
