CCSDS_OMM_VERS = 2.0
CREATION_DATE  = 
ORIGINATOR     = 

OBJECT_NAME    = STARLINK-37079
OBJECT_ID      = 2026-050V
CENTER_NAME    = EARTH
REF_FRAME      = TEME
TIME_SYSTEM    = UTC
MEAN_ELEMENT_THEORY = SGP/SGP4

EPOCH          = 2026-03-31T22:16:14.831616
MEAN_MOTION    = 15.81004413
ECCENTRICITY   = .00045036
INCLINATION    = 53.1591
RA_OF_ASC_NODE = 170.2260
ARG_OF_PERICENTER = 63.1220
MEAN_ANOMALY   = 297.0262

EPHEMERIS_TYPE = 0
CLASSIFICATION_TYPE = U
NORAD_CAT_ID   = 68186
ELEMENT_SET_NO = 999
REV_AT_EPOCH   = 399
BSTAR          = .19470704E-2
MEAN_MOTION_DOT = .404671E-2
MEAN_MOTION_DDOT = 0

CCSDS_OMM_VERS = 2.0
CREATION_DATE  = 
ORIGINATOR     = 

OBJECT_NAME    = STARLINK-37006
OBJECT_ID      = 2026-050W
CENTER_NAME    = EARTH
REF_FRAME      = TEME
TIME_SYSTEM    = UTC
MEAN_ELEMENT_THEORY = SGP/SGP4

EPOCH          = 2026-03-31T16:11:00.109248
MEAN_MOTION    = 15.80976539
ECCENTRICITY   = .00013831
INCLINATION    = 53.1593
RA_OF_ASC_NODE = 171.4878
ARG_OF_PERICENTER = 112.3333
MEAN_ANOMALY   = 247.7837

EPHEMERIS_TYPE = 0
CLASSIFICATION_TYPE = U
NORAD_CAT_ID   = 68187
ELEMENT_SET_NO = 999
REV_AT_EPOCH   = 395
BSTAR          = .15818622E-2
MEAN_MOTION_DOT = .325098E-2
MEAN_MOTION_DDOT = 0

CCSDS_OMM_VERS = 2.0
CREATION_DATE  = 
ORIGINATOR     = 

OBJECT_NAME    = STARLINK-36340
OBJECT_ID      = 2026-050X
CENTER_NAME    = EARTH
REF_FRAME      = TEME
TIME_SYSTEM    = UTC
MEAN_ELEMENT_THEORY = SGP/SGP4

EPOCH          = 2026-04-01T04:18:12.519648
MEAN_MOTION    = 15.81062405
ECCENTRICITY   = .0001039
INCLINATION    = 53.1589
RA_OF_ASC_NODE = 168.9478
ARG_OF_PERICENTER = 101.3619
MEAN_ANOMALY   = 258.7521

EPHEMERIS_TYPE = 0
CLASSIFICATION_TYPE = U
NORAD_CAT_ID   = 68188
ELEMENT_SET_NO = 999
REV_AT_EPOCH   = 393
BSTAR          = .17377E-2
MEAN_MOTION_DOT = .360087E-2
MEAN_MOTION_DDOT = 0

CCSDS_OMM_VERS = 2.0
CREATION_DATE  = 
ORIGINATOR     = 

OBJECT_NAME    = STARLINK-36305
OBJECT_ID      = 2026-050Y
CENTER_NAME    = EARTH
REF_FRAME      = TEME
TIME_SYSTEM    = UTC
MEAN_ELEMENT_THEORY = SGP/SGP4

EPOCH          = 2026-04-01T04:17:07.305792
MEAN_MOTION    = 15.80990434
ECCENTRICITY   = .0001172
INCLINATION    = 53.1587
RA_OF_ASC_NODE = 168.9434
ARG_OF_PERICENTER = 44.5555
MEAN_ANOMALY   = 315.5562

EPHEMERIS_TYPE = 0
CLASSIFICATION_TYPE = U
NORAD_CAT_ID   = 68189
ELEMENT_SET_NO = 999
REV_AT_EPOCH   = 393
BSTAR          = .12687E-2
MEAN_MOTION_DOT = .258739E-2
MEAN_MOTION_DDOT = 0

CCSDS_OMM_VERS = 2.0
CREATION_DATE  = 
ORIGINATOR     = 

OBJECT_NAME    = STARLINK-37071
OBJECT_ID      = 2026-050Z
CENTER_NAME    = EARTH
REF_FRAME      = TEME
TIME_SYSTEM    = UTC
MEAN_ELEMENT_THEORY = SGP/SGP4

EPOCH          = 2026-04-01T04:14:57.918336
MEAN_MOTION    = 15.80995445
ECCENTRICITY   = .0002064
INCLINATION    = 53.1587
RA_OF_ASC_NODE = 168.9331
ARG_OF_PERICENTER = 137.2382
MEAN_ANOMALY   = 222.8802

EPHEMERIS_TYPE = 0
CLASSIFICATION_TYPE = U
NORAD_CAT_ID   = 68190
ELEMENT_SET_NO = 999
REV_AT_EPOCH   = 403
BSTAR          = .2204E-2
MEAN_MOTION_DOT = .460906E-2
MEAN_MOTION_DDOT = 0

CCSDS_OMM_VERS = 2.0
CREATION_DATE  = 
ORIGINATOR     = 

OBJECT_NAME    = STARLINK-37091
OBJECT_ID      = 2026-050AA
CENTER_NAME    = EARTH
REF_FRAME      = TEME
TIME_SYSTEM    = UTC
MEAN_ELEMENT_THEORY = SGP/SGP4

EPOCH          = 2026-04-01T04:13:53.079456
MEAN_MOTION    = 15.80950321
ECCENTRICITY   = .0001025
INCLINATION    = 53.1589
RA_OF_ASC_NODE = 168.9278
ARG_OF_PERICENTER = 88.3294
MEAN_ANOMALY   = 271.7846

EPHEMERIS_TYPE = 0
CLASSIFICATION_TYPE = U
NORAD_CAT_ID   = 68191
ELEMENT_SET_NO = 999
REV_AT_EPOCH   = 403
BSTAR          = .17386E-2
MEAN_MOTION_DOT = .358353E-2
MEAN_MOTION_DDOT = 0

CCSDS_OMM_VERS = 2.0
CREATION_DATE  = 
ORIGINATOR     = 

OBJECT_NAME    = STARLINK-37098
OBJECT_ID      = 2026-050AB
CENTER_NAME    = EARTH
REF_FRAME      = TEME
TIME_SYSTEM    = UTC
MEAN_ELEMENT_THEORY = SGP/SGP4

EPOCH          = 2026-04-01T04:12:48.339936
MEAN_MOTION    = 15.80957346
ECCENTRICITY   = .000113
INCLINATION    = 53.1587
RA_OF_ASC_NODE = 168.9228
ARG_OF_PERICENTER = 85.1444
MEAN_ANOMALY   = 274.9708

EPHEMERIS_TYPE = 0
CLASSIFICATION_TYPE = U
NORAD_CAT_ID   = 68192
ELEMENT_SET_NO = 999
REV_AT_EPOCH   = 403
BSTAR          = .91595E-3
MEAN_MOTION_DOT = .184715E-2
MEAN_MOTION_DDOT = 0

CCSDS_OMM_VERS = 2.0
CREATION_DATE  = 
ORIGINATOR     = 

OBJECT_NAME    = STARLINK-37090
OBJECT_ID      = 2026-050AC
CENTER_NAME    = EARTH
REF_FRAME      = TEME
TIME_SYSTEM    = UTC
MEAN_ELEMENT_THEORY = SGP/SGP4

EPOCH          = 2026-04-01T05:41:41.082720
MEAN_MOTION    = 15.80903545
ECCENTRICITY   = .000216
INCLINATION    = 53.1587
RA_OF_ASC_NODE = 168.5953
ARG_OF_PERICENTER = 325.7128
MEAN_ANOMALY   = 34.3755

EPHEMERIS_TYPE = 0
CLASSIFICATION_TYPE = U
NORAD_CAT_ID   = 68193
ELEMENT_SET_NO = 999
REV_AT_EPOCH   = 404
BSTAR          = .15559E-2
MEAN_MOTION_DOT = .318439E-2
MEAN_MOTION_DDOT = 0

CCSDS_OMM_VERS = 2.0
CREATION_DATE  = 
ORIGINATOR     = 

OBJECT_NAME    = STARLINK-37093
OBJECT_ID      = 2026-050AD
CENTER_NAME    = EARTH
REF_FRAME      = TEME
TIME_SYSTEM    = UTC
MEAN_ELEMENT_THEORY = SGP/SGP4

EPOCH          = 2026-04-01T04:16:02.961120
MEAN_MOTION    = 15.81124776
ECCENTRICITY   = .0000473
INCLINATION    = 53.1588
RA_OF_ASC_NODE = 168.9374
ARG_OF_PERICENTER = 77.5132
MEAN_ANOMALY   = 282.5943

EPHEMERIS_TYPE = 0
CLASSIFICATION_TYPE = U
NORAD_CAT_ID   = 68194
ELEMENT_SET_NO = 999
REV_AT_EPOCH   = 403
BSTAR          = .24129E-2
MEAN_MOTION_DOT = .510736E-2
MEAN_MOTION_DDOT = 0

CCSDS_OMM_VERS = 2.0
CREATION_DATE  = 
ORIGINATOR     = 

OBJECT_NAME    = STARLINK-37058
OBJECT_ID      = 2026-050AE
CENTER_NAME    = EARTH
REF_FRAME      = TEME
TIME_SYSTEM    = UTC
MEAN_ELEMENT_THEORY = SGP/SGP4

EPOCH          = 2026-04-01T05:42:45.381600
MEAN_MOTION    = 15.80969907
ECCENTRICITY   = .0001134
INCLINATION    = 53.1587
RA_OF_ASC_NODE = 168.6001
ARG_OF_PERICENTER = 104.7180
MEAN_ANOMALY   = 255.3968

EPHEMERIS_TYPE = 0
CLASSIFICATION_TYPE = U
NORAD_CAT_ID   = 68195
ELEMENT_SET_NO = 999
REV_AT_EPOCH   = 248
BSTAR          = .96956E-3
MEAN_MOTION_DOT = .195938E-2
MEAN_MOTION_DDOT = 0

CCSDS_OMM_VERS = 2.0
CREATION_DATE  = 
ORIGINATOR     = 

OBJECT_NAME    = YAOGAN-50 02
OBJECT_ID      = 2026-051A
CENTER_NAME    = EARTH
REF_FRAME      = TEME
TIME_SYSTEM    = UTC
MEAN_ELEMENT_THEORY = SGP/SGP4

EPOCH          = 2026-04-01T04:17:10.574304
MEAN_MOTION    = 13.83260251
ECCENTRICITY   = .0000728
INCLINATION    = 141.9865
RA_OF_ASC_NODE = 315.6967
ARG_OF_PERICENTER = 278.2223
MEAN_ANOMALY   = 81.8414

EPHEMERIS_TYPE = 0
CLASSIFICATION_TYPE = U
NORAD_CAT_ID   = 68196
ELEMENT_SET_NO = 999
REV_AT_EPOCH   = 232
BSTAR          = .72414E-4
MEAN_MOTION_DOT = .267E-5
MEAN_MOTION_DDOT = 0

